IRIDIUM 155             
1 43573U 18061E   26084.45863910  .00000020  00000+0  13929-6 0  9995
2 43573  86.3903  91.6943 0002151  94.3523 265.7919 14.34217654401359
IRIDIUM 154             
1 43574U 18061F   26084.30007519  .00000032  00000+0  44473-5 0  9995
2 43574  86.3909  91.8903 0002412  93.2522 266.8950 14.34217785401386
IRIDIUM 163             
1 43575U 18061G   26084.42058237 -.00000048  00000+0 -24097-4 0  9990
2 43575  86.3905  91.7577 0002020  90.5710 269.5717 14.34217167401377
IRIDIUM 156             
1 43576U 18061H   26084.46498159  .00000093  00000+0  26298-4 0  9999
2 43576  86.3905  91.7463 0002192  95.5693 264.5753 14.34218276401374
IRIDIUM 164             
1 43577U 18061J   26084.44595390  .00000046  00000+0  94655-5 0  9994
2 43577  86.3906  91.7933 0002447  90.5726 269.5750 14.34217640401414
IRIDIUM 159             
1 43578U 18061K   26084.41424107 -.00000003  00000+0 -83077-5 0  9990
2 43578  86.3904  91.7450 0002150  87.1183 273.0259 14.34217445401379
IRIDIUM 180             
1 43922U 19002A   26084.34396884  .00000134  00000+0  40627-4 0  9997
2 43922  86.4001  28.6239 0002227  82.8756 277.2693 14.34216158376973
IRIDIUM 176             
1 43923U 19002B   26083.87902582  .00001054  00000+0  16325-3 0  9992
2 43923  86.6121  28.7731 0002544  87.7561 272.3947 14.72256676386843
IRIDIUM 168             
1 43924U 19002C   26084.54693284  .00000217  00000+0  70518-4 0  9999
2 43924  86.4008  28.6141 0002166  85.2951 274.8492 14.34217173376989
IRIDIUM 173             
1 43925U 19002D   26084.39471004  .00000233  00000+0  76273-4 0  9999
2 43925  86.3998  28.5696 0002080  85.1334 275.0099 14.34216791376947
IRIDIUM 169             
1 43926U 19002E   26084.36798228  .00000313  00000+0  95869-4 0  9998
2 43926  86.4194  60.2246 0001737 102.7982 257.3411 14.38605952378177
IRIDIUM 172             
1 43927U 19002F   26084.38836792  .00000108  00000+0  31436-4 0  9992
2 43927  86.4002  28.5800 0002266  81.5943 278.5509 14.34217218376955
IRIDIUM 175             
1 43928U 19002G   26084.68103228  .00000338  00000+0  93802-4 0  9997
2 43928  86.4536 325.4462 0004836 118.8085 241.3602 14.43578385386933
IRIDIUM 171             
1 43929U 19002H   26084.57864373  .00000243  00000+0  79740-4 0  9991
2 43929  86.4005  28.7977 0002329  89.8904 270.2558 14.34215855376975
IRIDIUM 170             
1 43930U 19002J   26084.56489383  .00000976  00000+0  15096-3 0  9992
2 43930  86.6125  28.4894 0002523  82.9037 277.2467 14.72241594386950
IRIDIUM 167             
1 43931U 19002K   26084.57230319  .00000038  00000+0  63844-5 0  9992
2 43931  86.3998  28.5250 0002248  94.9668 265.1784 14.34217044376970
IRIDIUM 181             
1 56726U 23068S   26084.42587754  .00000137  00000+0  34693-4 0  9996
2 56726  86.4443  91.8133 0002597  86.5750 273.5748 14.43311303150359
IRIDIUM 177             
1 56727U 23068T   26084.49660054  .00001124  00000+0  14451-3 0  9995
2 56727  86.1982   8.5241 0002153  80.9892 279.1573 14.80210201153989
IRIDIUM 174             
1 56728U 23068U   26084.55253371  .00001093  00000+0  16936-3 0  9998
2 56728  86.6130  28.6337 0002437  77.5264 282.6226 14.72260252153716
IRIDIUM 178             
1 56729U 23068V   26084.41809139  .00001386  00000+0  17907-3 0  9997
2 56729  86.6506  60.3570 0002826  90.9827 269.1719 14.80223666153974
IRIDIUM 179             
1 56730U 23068W   26084.41270598  .00000555  00000+0  69642-4 0  9991
2 56730  86.6734  69.0961 0002551  95.3688 264.7825 14.80240181153978
